{
    "links": {
        "self": "http://www.neowsapp.com/rest/v1/neo/54087669?api_key=iIulBulltgU6a56xZRHN4H3l9WmuAYTsLGpBGhQ2"
    },
    "id": "54087669",
    "neo_reference_id": "54087669",
    "name": "(2020 VH2)",
    "designation": "2020 VH2",
    "nasa_jpl_url": "http://ssd.jpl.nasa.gov/sbdb.cgi?sstr=54087669",
    "absolute_magnitude_h": 28.259,
    "estimated_diameter": {
        "kilometers": {
            "estimated_diameter_min": 0.005925909,
            "estimated_diameter_max": 0.0132507353
        },
        "meters": {
            "estimated_diameter_min": 5.9259089804,
            "estimated_diameter_max": 13.2507353087
        },
        "miles": {
            "estimated_diameter_min": 0.003682188,
            "estimated_diameter_max": 0.0082336226
        },
        "feet": {
            "estimated_diameter_min": 19.4419592193,
            "estimated_diameter_max": 43.4735424302
        }
    },
    "is_potentially_hazardous_asteroid": false,
    "close_approach_data": [
        {
            "close_approach_date": "2016-12-01",
            "close_approach_date_full": "2016-Dec-01 18:08",
            "epoch_date_close_approach": 1480615680000,
            "relative_velocity": {
                "kilometers_per_second": "20.4077247495",
                "kilometers_per_hour": "73467.8090982443",
                "miles_per_hour": "45650.0394921841"
            },
            "miss_distance": {
                "astronomical": "0.3482966439",
                "lunar": "135.4873944771",
                "kilometers": "52104436.055588493",
                "miles": "32376195.2608194834"
            },
            "orbiting_body": "Earth"
        },
        {
            "close_approach_date": "2018-11-22",
            "close_approach_date_full": "2018-Nov-22 09:53",
            "epoch_date_close_approach": 1542880380000,
            "relative_velocity": {
                "kilometers_per_second": "15.2227441835",
                "kilometers_per_hour": "54801.8790604556",
                "miles_per_hour": "34051.7564639815"
            },
            "miss_distance": {
                "astronomical": "0.1707310611",
                "lunar": "66.4143827679",
                "kilometers": "25541003.083399857",
                "miles": "15870443.3937857466"
            },
            "orbiting_body": "Earth"
        },
        {
            "close_approach_date": "2020-07-03",
            "close_approach_date_full": "2020-Jul-03 15:19",
            "epoch_date_close_approach": 1593789540000,
            "relative_velocity": {
                "kilometers_per_second": "4.3683113562",
                "kilometers_per_hour": "15725.920882197",
                "miles_per_hour": "9771.4756726073"
            },
            "miss_distance": {
                "astronomical": "0.4691337964",
                "lunar": "182.4930467996",
                "kilometers": "70181416.686453668",
                "miles": "43608710.1662018984"
            },
            "orbiting_body": "Earth"
        },
        {
            "close_approach_date": "2020-11-08",
            "close_approach_date_full": "2020-Nov-08 05:36",
            "epoch_date_close_approach": 1604813760000,
            "relative_velocity": {
                "kilometers_per_second": "10.4221679169",
                "kilometers_per_hour": "37519.8045009142",
                "miles_per_hour": "23313.3474133597"
            },
            "miss_distance": {
                "astronomical": "0.0088777472",
                "lunar": "3.4534436608",
                "kilometers": "1328092.071518464",
                "miles": "825238.1464402432"
            },
            "orbiting_body": "Earth"
        },
        {
            "close_approach_date": "2020-11-08",
            "close_approach_date_full": "2020-Nov-08 07:59",
            "epoch_date_close_approach": 1604822340000,
            "relative_velocity": {
                "kilometers_per_second": "11.2678677996",
                "kilometers_per_hour": "40564.3240787177",
                "miles_per_hour": "25205.0934810232"
            },
            "miss_distance": {
                "astronomical": "0.0091679383",
                "lunar": "3.5663279987",
                "kilometers": "1371504.041971421",
                "miles": "852213.0940347698"
            },
            "orbiting_body": "Moon"
        }
    ],
    "orbital_data": {
        "orbit_id": "2",
        "orbit_determination_date": "2020-11-12 05:44:22",
        "first_observation_date": "2020-11-11",
        "last_observation_date": "2020-11-12",
        "data_arc_in_days": 1,
        "observations_used": 22,
        "orbit_uncertainty": "7",
        "minimum_orbit_intersection": ".0091191",
        "jupiter_tisserand_invariant": "4.293",
        "epoch_osculation": "2459000.5",
        "eccentricity": ".4275701340511135",
        "semi_major_axis": "1.573076580668203",
        "inclination": "7.856256325796815",
        "ascending_node_longitude": "49.35610451657038",
        "orbital_period": "720.6480654538393",
        "perihelion_distance": ".9004760161992318",
        "perihelion_argument": "309.7819381322101",
        "aphelion_distance": "2.245677145137173",
        "perihelion_time": "2459125.336617620115",
        "mean_anomaly": "297.6378228186333",
        "mean_motion": ".4995503592634837",
        "equinox": "J2000",
        "orbit_class": {
            "orbit_class_type": "APO",
            "orbit_class_description": "Near-Earth asteroid orbits which cross the Earth’s orbit similar to that of 1862 Apollo",
            "orbit_class_range": "a (semi-major axis) > 1.0 AU; q (perihelion) < 1.017 AU"
        }
    },
    "is_sentry_object": false
}